start=new Date('2023-05-27T00:00:00.000Z').valueOf();
sats=[{"MEAN_ANOMALY":"162.2414","DECAY_DATE":null,"EPHEMERIS_TYPE":"0","NORAD_CAT_ID":"53505","COUNTRY_CODE":"US","RA_OF_ASC_NODE":"268.2746","MEAN_ELEMENT_THEORY":"SGP4","BSTAR":"0.00006785000000","PERIAPSIS":"562.194","MEAN_MOTION_DDOT":"0.0000000000000","FILE":"3917850","MEAN_MOTION_DOT":"0.00000813","ARG_OF_PERICENTER":"197.8769","REV_AT_EPOCH":"4328","SEMIMAJOR_AXIS":"6941.150","REF_FRAME":"TEME","MEAN_MOTION":"15.01258852","CLASSIFICATION_TYPE":"U","RCS_SIZE":"MEDIUM","PERIOD":"95.920","TLE_LINE1":"1 53505U 22099AS  23146.88486029  .00000813  00000-0  67850-4 0  9993","SITE":"AFWTR","OBJECT_ID":"2022-099AS","LAUNCH_DATE":"2022-08-12","ELEMENT_SET_NO":"999","CENTER_NAME":"EARTH","OBJECT_TYPE":"PAYLOAD","TLE_LINE2":"2 53505  97.6562 268.2746 0001183 197.8769 162.2414 15.01258852 43284","GP_ID":"232586522","OBJECT_NAME":"STARLINK-4446","APOAPSIS":"563.837","ECCENTRICITY":"0.00011830","TIME_SYSTEM":"UTC","EPOCH":"2023-05-26T21:14:11.929056","INCLINATION":"97.6562"},{"MEAN_ANOMALY":"255.0998","RA_OF_ASC_NODE":"268.2696","COUNTRY_CODE":"US","EPHEMERIS_TYPE":"0","DECAY_DATE":null,"NORAD_CAT_ID":"53506","BSTAR":"0.00431260000000","MEAN_ELEMENT_THEORY":"SGP4","PERIAPSIS":"562.805","MEAN_MOTION_DDOT":"0.0000000000000","FILE":"3917850","ARG_OF_PERICENTER":"105.0406","MEAN_MOTION_DOT":"0.00055333","REF_FRAME":"TEME","SEMIMAJOR_AXIS":"6942.071","REV_AT_EPOCH":"4328","MEAN_MOTION":"15.00960379","PERIOD":"95.939","RCS_SIZE":"LARGE","CLASSIFICATION_TYPE":"U","OBJECT_ID":"2022-099AT","SITE":"AFWTR","TLE_LINE1":"1 53506U 22099AT  23146.89034070  .00055333  00000-0  43126-2 0  9995","CENTER_NAME":"EARTH","ELEMENT_SET_NO":"999","LAUNCH_DATE":"2022-08-12","TLE_LINE2":"2 53506  97.6561 268.2696 0001628 105.0406 255.0998 15.00960379 43282","OBJECT_TYPE":"PAYLOAD","ECCENTRICITY":"0.00016280","GP_ID":"232587273","APOAPSIS":"565.066","OBJECT_NAME":"STARLINK-4437","EPOCH":"2023-05-26T21:22:05.436480","TIME_SYSTEM":"UTC","INCLINATION":"97.6561"},{"INCLINATION":"97.6560","EPOCH":"2023-05-26T21:11:31.994880","TIME_SYSTEM":"UTC","ECCENTRICITY":"0.00010820","OBJECT_NAME":"STARLINK-4444","GP_ID":"232587524","APOAPSIS":"563.768","TLE_LINE2":"2 53507  97.6560 268.2736 0001082 170.4395 189.6850 15.01258296 43282","OBJECT_TYPE":"PAYLOAD","CENTER_NAME":"EARTH","ELEMENT_SET_NO":"999","LAUNCH_DATE":"2022-08-12","OBJECT_ID":"2022-099AU","SITE":"AFWTR","TLE_LINE1":"1 53507U 22099AU  23146.88300920  .00000962  00000-0  79494-4 0  9992","PERIOD":"95.920","RCS_SIZE":"LARGE","CLASSIFICATION_TYPE":"U","MEAN_MOTION":"15.01258296","REF_FRAME":"TEME","SEMIMAJOR_AXIS":"6941.152","REV_AT_EPOCH":"4328","ARG_OF_PERICENTER":"170.4395","MEAN_MOTION_DOT":"0.00000962","FILE":"3917850","MEAN_MOTION_DDOT":"0.0000000000000","PERIAPSIS":"562.266","BSTAR":"0.00007949400000","MEAN_ELEMENT_THEORY":"SGP4","COUNTRY_CODE":"US","RA_OF_ASC_NODE":"268.2736","NORAD_CAT_ID":"53507","DECAY_DATE":null,"EPHEMERIS_TYPE":"0","MEAN_ANOMALY":"189.6850"},{"MEAN_MOTION":"15.01257816","PERIOD":"95.920","RCS_SIZE":"LARGE","CLASSIFICATION_TYPE":"U","OBJECT_ID":"2022-099AV","SITE":"AFWTR","TLE_LINE1":"1 53508U 22099AV  23146.88671272  .00000774  00000-0  64872-4 0  9999","CENTER_NAME":"EARTH","LAUNCH_DATE":"2022-08-12","ELEMENT_SET_NO":"999","TLE_LINE2":"2 53508  97.6561 268.2767 0001718 184.3039 175.8171 15.01257816 43283","OBJECT_TYPE":"PAYLOAD","ECCENTRICITY":"0.00017180","APOAPSIS":"564.211","GP_ID":"232588275","OBJECT_NAME":"STARLINK-4443","EPOCH":"2023-05-26T21:16:51.979008","TIME_SYSTEM":"UTC","INCLINATION":"97.6561","MEAN_ANOMALY":"175.8171","COUNTRY_CODE":"US","RA_OF_ASC_NODE":"268.2767","DECAY_DATE":null,"NORAD_CAT_ID":"53508","EPHEMERIS_TYPE":"0","BSTAR":"0.00006487200000","MEAN_ELEMENT_THEORY":"SGP4","PERIAPSIS":"561.826","MEAN_MOTION_DDOT":"0.0000000000000","FILE":"3917850","ARG_OF_PERICENTER":"184.3039","MEAN_MOTION_DOT":"0.00000774","REF_FRAME":"TEME","SEMIMAJOR_AXIS":"6941.154","REV_AT_EPOCH":"4328"},{"MEAN_MOTION":"15.01262672","CLASSIFICATION_TYPE":"U","RCS_SIZE":"LARGE","PERIOD":"95.919","TLE_LINE1":"1 53509U 22099AW  23146.87954789  .00001169  00000-0  95601-4 0  9999","SITE":"AFWTR","OBJECT_ID":"2022-099AW","LAUNCH_DATE":"2022-08-12","ELEMENT_SET_NO":"999","CENTER_NAME":"EARTH","OBJECT_TYPE":"PAYLOAD","TLE_LINE2":"2 53509  97.6546 268.2689 0000671 165.8335 194.2908 15.01262672 43289","GP_ID":"232587023","OBJECT_NAME":"STARLINK-4402","APOAPSIS":"563.469","ECCENTRICITY":"0.00006710","TIME_SYSTEM":"UTC","EPOCH":"2023-05-26T21:06:32.937696","INCLINATION":"97.6546","MEAN_ANOMALY":"194.2908","NORAD_CAT_ID":"53509","DECAY_DATE":null,"EPHEMERIS_TYPE":"0","RA_OF_ASC_NODE":"268.2689","COUNTRY_CODE":"US","MEAN_ELEMENT_THEORY":"SGP4","BSTAR":"0.00009560100000","PERIAPSIS":"562.538","MEAN_MOTION_DDOT":"0.0000000000000","FILE":"3917850","MEAN_MOTION_DOT":"0.00001169","ARG_OF_PERICENTER":"165.8335","REV_AT_EPOCH":"4328","SEMIMAJOR_AXIS":"6941.139","REF_FRAME":"TEME"},{"TIME_SYSTEM":"UTC","EPOCH":"2023-05-26T21:08:52.053792","INCLINATION":"97.6557","OBJECT_TYPE":"PAYLOAD","TLE_LINE2":"2 53510  97.6557 268.2712 0001216 130.3233 229.8098 15.01261713 43280","OBJECT_NAME":"STARLINK-4441","GP_ID":"232586773","APOAPSIS":"563.851","ECCENTRICITY":"0.00012160","TLE_LINE1":"1 53510U 22099AX  23146.88115803  .00001121  00000-0  91863-4 0  9992","SITE":"AFWTR","OBJECT_ID":"2022-099AX","LAUNCH_DATE":"2022-08-12","ELEMENT_SET_NO":"999","CENTER_NAME":"EARTH","MEAN_MOTION":"15.01261713","CLASSIFICATION_TYPE":"U","RCS_SIZE":"LARGE","PERIOD":"95.919","MEAN_MOTION_DOT":"0.00001121","ARG_OF_PERICENTER":"130.3233","REV_AT_EPOCH":"4328","SEMIMAJOR_AXIS":"6941.142","REF_FRAME":"TEME","MEAN_MOTION_DDOT":"0.0000000000000","FILE":"3917850","MEAN_ELEMENT_THEORY":"SGP4","BSTAR":"0.00009186300000","PERIAPSIS":"562.163","MEAN_ANOMALY":"229.8098","EPHEMERIS_TYPE":"0","DECAY_DATE":null,"NORAD_CAT_ID":"53510","RA_OF_ASC_NODE":"268.2712","COUNTRY_CODE":"US"},{"PERIAPSIS":"538.987","MEAN_ELEMENT_THEORY":"SGP4","BSTAR":"0.00004168300000","DECAY_DATE":null,"NORAD_CAT_ID":"53527","EPHEMERIS_TYPE":"0","COUNTRY_CODE":"US","RA_OF_ASC_NODE":"323.3161","MEAN_ANOMALY":"265.1437","SEMIMAJOR_AXIS":"6917.881","REF_FRAME":"TEME","REV_AT_EPOCH":"4250","MEAN_MOTION_DOT":"0.00000376","ARG_OF_PERICENTER":"94.9681","FILE":"3917850","MEAN_MOTION_DDOT":"0.0000000000000","CENTER_NAME":"EARTH","ELEMENT_SET_NO":"999","LAUNCH_DATE":"2022-08-19","SITE":"AFETR","OBJECT_ID":"2022-101A","TLE_LINE1":"1 53527U 22101A   23146.86468821  .00000376  00000-0  41683-4 0  9999","PERIOD":"95.438","CLASSIFICATION_TYPE":"U","RCS_SIZE":"LARGE","MEAN_MOTION":"15.08839687","INCLINATION":"53.2164","EPOCH":"2023-05-26T20:45:09.061344","TIME_SYSTEM":"UTC","ECCENTRICITY":"0.00010980","GP_ID":"232586524","APOAPSIS":"540.506","OBJECT_NAME":"STARLINK-4511","TLE_LINE2":"2 53527  53.2164 323.3161 0001098  94.9681 265.1437 15.08839687 42503","OBJECT_TYPE":"PAYLOAD"},{"INCLINATION":"53.2164","EPOCH":"2023-05-26T20:50:25.824480","TIME_SYSTEM":"UTC","ECCENTRICITY":"0.00012740","OBJECT_NAME":"STARLINK-4503","GP_ID":"232587275","APOAPSIS":"540.728","TLE_LINE2":"2 53528  53.2164 323.2983 0001274  80.8023 279.3113 15.08807018 42506","OBJECT_TYPE":"PAYLOAD","CENTER_NAME":"EARTH","LAUNCH_DATE":"2022-08-19","ELEMENT_SET_NO":"999","SITE":"AFETR","OBJECT_ID":"2022-101B","TLE_LINE1":"1 53528U 22101B   23146.86835445  .00003274  00000-0  22392-3 0  9995","PERIOD":"95.440","CLASSIFICATION_TYPE":"U","RCS_SIZE":"LARGE","MEAN_MOTION":"15.08807018","SEMIMAJOR_AXIS":"6917.981","REF_FRAME":"TEME","REV_AT_EPOCH":"4250","MEAN_MOTION_DOT":"0.00003274","ARG_OF_PERICENTER":"80.8023","FILE":"3917850","MEAN_MOTION_DDOT":"0.0000000000000","PERIAPSIS":"538.965","MEAN_ELEMENT_THEORY":"SGP4","BSTAR":"0.00022392000000","NORAD_CAT_ID":"53528","DECAY_DATE":null,"EPHEMERIS_TYPE":"0","RA_OF_ASC_NODE":"323.2983","COUNTRY_CODE":"US","MEAN_ANOMALY":"279.3113"},{"RA_OF_ASC_NODE":"323.9288","COUNTRY_CODE":"US","DECAY_DATE":null,"NORAD_CAT_ID":"53529","EPHEMERIS_TYPE":"0","MEAN_ANOMALY":"258.0170","PERIAPSIS":"539.030","BSTAR":"0.00001564900000","MEAN_ELEMENT_THEORY":"SGP4","FILE":"3917850","MEAN_MOTION_DDOT":"0.0000000000000","REV_AT_EPOCH":"4248","REF_FRAME":"TEME","SEMIMAJOR_AXIS":"6917.884","ARG_OF_PERICENTER":"102.0939","MEAN_MOTION_DOT":"-0.00000039","RCS_SIZE":"LARGE","CLASSIFICATION_TYPE":"U","PERIOD":"95.438","MEAN_MOTION":"15.08838738","ELEMENT_SET_NO":"999","LAUNCH_DATE":"2022-08-19","CENTER_NAME":"EARTH","TLE_LINE1":"1 53529U 22101C   23146.72852744 -.00000039  00000-0  15649-4 0  9997","OBJECT_ID":"2022-101C","SITE":"AFETR","APOAPSIS":"540.469","GP_ID":"232587526","OBJECT_NAME":"STARLINK-4478","ECCENTRICITY":"0.00010400","OBJECT_TYPE":"PAYLOAD","TLE_LINE2":"2 53529  53.2163 323.9288 0001040 102.0939 258.0170 15.08838738 42482","INCLINATION":"53.2163","TIME_SYSTEM":"UTC","EPOCH":"2023-05-26T17:29:04.770816"},{"OBJECT_TYPE":"PAYLOAD","TLE_LINE2":"2 53530  53.2162 323.9558 0000984  98.1088 262.0016 15.08838269 42482","APOAPSIS":"540.431","GP_ID":"232588277","OBJECT_NAME":"STARLINK-4482","ECCENTRICITY":"0.00009840","TIME_SYSTEM":"UTC","EPOCH":"2023-05-26T17:19:51.503232","INCLINATION":"53.2162","MEAN_MOTION":"15.08838269","RCS_SIZE":"LARGE","CLASSIFICATION_TYPE":"U","PERIOD":"95.438","TLE_LINE1":"1 53530U 22101D   23146.72212388  .00000152  00000-0  27601-4 0  9999","OBJECT_ID":"2022-101D","SITE":"AFETR","ELEMENT_SET_NO":"999","LAUNCH_DATE":"2022-08-19","CENTER_NAME":"EARTH","MEAN_MOTION_DDOT":"0.0000000000000","FILE":"3917850","ARG_OF_PERICENTER":"98.1088","MEAN_MOTION_DOT":"0.00000152","REV_AT_EPOCH":"4248","REF_FRAME":"TEME","SEMIMAJOR_AXIS":"6917.886","MEAN_ANOMALY":"262.0016","RA_OF_ASC_NODE":"323.9558","COUNTRY_CODE":"US","DECAY_DATE":null,"NORAD_CAT_ID":"53530","EPHEMERIS_TYPE":"0","BSTAR":"0.00002760100000","MEAN_ELEMENT_THEORY":"SGP4","PERIAPSIS":"539.070"}];
